{
    "links": {
        "self": "http://www.neowsapp.com/rest/v1/neo/3709713?api_key=iIulBulltgU6a56xZRHN4H3l9WmuAYTsLGpBGhQ2"
    },
    "id": "3709713",
    "neo_reference_id": "3709713",
    "name": "(2015 CG)",
    "designation": "2015 CG",
    "nasa_jpl_url": "http://ssd.jpl.nasa.gov/sbdb.cgi?sstr=3709713",
    "absolute_magnitude_h": 25.6,
    "estimated_diameter": {
        "kilometers": {
            "estimated_diameter_min": 0.0201629919,
            "estimated_diameter_max": 0.0450858206
        },
        "meters": {
            "estimated_diameter_min": 20.1629919443,
            "estimated_diameter_max": 45.0858206172
        },
        "miles": {
            "estimated_diameter_min": 0.0125286985,
            "estimated_diameter_max": 0.0280150214
        },
        "feet": {
            "estimated_diameter_min": 66.1515504905,
            "estimated_diameter_max": 147.9193637137
        }
    },
    "is_potentially_hazardous_asteroid": false,
    "close_approach_data": [
        {
            "close_approach_date": "2015-02-11",
            "close_approach_date_full": "2015-Feb-11 13:14",
            "epoch_date_close_approach": 1423660440000,
            "relative_velocity": {
                "kilometers_per_second": "12.0772908451",
                "kilometers_per_hour": "43478.2470422833",
                "miles_per_hour": "27015.6918913565"
            },
            "miss_distance": {
                "astronomical": "0.0182175792",
                "lunar": "7.0866383088",
                "kilometers": "2725311.044876304",
                "miles": "1693429.7579048352"
            },
            "orbiting_body": "Earth"
        }
    ],
    "orbital_data": {
        "orbit_id": "6",
        "orbit_determination_date": "2017-04-06 08:35:50",
        "first_observation_date": "2015-02-07",
        "last_observation_date": "2015-02-10",
        "data_arc_in_days": 3,
        "observations_used": 45,
        "orbit_uncertainty": "7",
        "minimum_orbit_intersection": ".0135621",
        "jupiter_tisserand_invariant": "3.449",
        "epoch_osculation": "2459000.5",
        "eccentricity": ".5830787918633483",
        "semi_major_axis": "2.164004909227212",
        "inclination": "4.543203177902593",
        "ascending_node_longitude": "134.4934873239615",
        "orbital_period": "1162.748503882212",
        "perihelion_distance": ".9022195411686543",
        "perihelion_argument": "50.40868810797223",
        "aphelion_distance": "3.425790277285769",
        "perihelion_time": "2459421.898424712356",
        "mean_anomaly": "229.5303133997273",
        "mean_motion": ".3096112347580095",
        "equinox": "J2000",
        "orbit_class": {
            "orbit_class_type": "APO",
            "orbit_class_description": "Near-Earth asteroid orbits which cross the Earth’s orbit similar to that of 1862 Apollo",
            "orbit_class_range": "a (semi-major axis) > 1.0 AU; q (perihelion) < 1.017 AU"
        }
    },
    "is_sentry_object": false
}